{"type": "FeatureCollection", "features": [{"type": "Feature", "geometry": {"type": "MultiPolygon", "coordinates": [[[[-74.7262, 44.9949], [-74.7313, 44.9904], [-74.7446, 44.9906], [-74.7602, 44.9949], [-74.7634, 45.0056], [-74.7931, 45.0046], [-74.8016, 45.0146], [-74.8172, 45.0117], [-74.8266, 45.0159], [-74.8626, 45.0046], [-74.8666, 45.0005], [-74.8878, 45.0], [-74.9007, 44.9928], [-74.9079, 44.9834], [-74.9725, 44.9834], [-74.9928, 44.9774], [-74.9993, 44.9716], [-74.9993, 44.9661], [-75.0052, 44.9584], [-75.0271, 44.9466], [-75.06, 44.9346], [-75.0648, 44.9294], [-75.0967, 44.9271], [-75.1051, 44.9195], [-75.1176, 44.9213], [-75.1337, 44.9154], [-75.14, 44.8969], [-75.165, 44.8935], [-75.2029, 44.8778], [-75.2184, 44.8778], [-75.2282, 44.8683], [-75.241, 44.8672], [-75.2561, 44.8573], [-75.2904, 44.8456], [-75.3076, 44.8368], [-75.3019, 44.8265], [-75.3337, 44.8064], [-75.3445, 44.8091], [-75.3698, 44.7881], [-75.37, 44.7829], [-75.3879, 44.7796], [-75.3965, 44.7735], [-75.4137, 44.7722], [-75.4237, 44.7561], [-75.4761, 44.7208], [-75.5049, 44.7054], [-75.62, 44.6187], [-75.6624, 44.5919], [-75.7669, 44.5153], [-75.8076, 44.4717], [-75.8214, 44.432], [-75.9128, 44.3678], [-75.9217, 44.3688], [-75.9295, 44.3593], [-75.9702, 44.3425], [-75.9819, 44.3475], [-76.0011, 44.3479], [-76.0455, 44.3318], [-76.097, 44.2997], [-76.1182, 44.2949], [-76.1312, 44.2964], [-76.1618, 44.2808], [-76.1643, 44.2396], [-76.1913, 44.2212], [-76.2068, 44.2145], [-76.2455, 44.2037], [-76.2865, 44.2038], [-76.3126, 44.199], [-76.3527, 44.1347], [-76.4383, 44.0942], [-76.4989, 44.0001], [-76.7535, 43.6843], [-76.7762, 43.6295], [-78.1247, 43.6312], [-78.6883, 43.6347], [-78.7498, 43.6093], [-79.2009, 43.4504], [-79.0705, 43.2625], [-79.0559, 43.2547], [-79.053, 43.2235], [-79.0566, 43.2103], [-79.0487, 43.2002], [-79.0533, 43.1739], [-79.0466, 43.1624], [-79.0423, 43.1437], [-79.0437, 43.1384], [-79.0541, 43.1294], [-79.0696, 43.1203], [-79.0601, 43.1139], [-79.058, 43.107], [-79.066, 43.0911], [-79.0754, 43.0814], [-79.0745, 43.0779], [-79.0071, 43.0658], [-78.9994, 43.0561], [-79.0117, 43.029], [-79.0233, 43.0164], [-79.02, 42.9948], [-79.0116, 42.9853], [-78.9751, 42.9688], [-78.9618, 42.9578], [-78.9324, 42.9559], [-78.9189, 42.9469], [-78.9057, 42.9234], [-78.9058, 42.9], [-78.9306, 42.8501], [-78.9998, 42.8044], [-79.7624, 42.5161], [-79.762, 41.9988], [-78.1215, 42.0004], [-77.8284, 41.9983], [-76.829, 42.002], [-76.3448, 41.9984], [-75.3596, 41.9996], [-75.3406, 41.9924], [-75.3375, 41.9846], [-75.3421, 41.9727], [-75.328, 41.9679], [-75.3196, 41.9603], [-75.3178, 41.9537], [-75.3026, 41.948], [-75.3008, 41.9536], [-75.2933, 41.9543], [-75.2895, 41.9432], [-75.2788, 41.9387], [-75.2766, 41.9222], [-75.2673, 41.9061], [-75.273, 41.8966], [-75.2717, 41.8884], [-75.2596, 41.8823], [-75.2575, 41.8761], [-75.2643, 41.8695], [-75.2583, 41.8623], [-75.25, 41.8622], [-75.2411, 41.8673], [-75.2245, 41.8576], [-75.215, 41.8673], [-75.2046, 41.8699], [-75.1954, 41.8678], [-75.1854, 41.8601], [-75.178, 41.8709], [-75.1725, 41.8723], [-75.1684, 41.8693], [-75.1683, 41.8587], [-75.1629, 41.8506], [-75.1547, 41.8485], [-75.1406, 41.8522], [-75.131, 41.8453], [-75.1166, 41.8454], [-75.1134, 41.8421], [-75.113, 41.8226], [-75.0899, 41.8117], [-75.0722, 41.8141], [-75.0757, 41.7996], [-75.0929, 41.7965], [-75.1017, 41.7875], [-75.1047, 41.7744], [-75.1019, 41.7696], [-75.0946, 41.7684], [-75.0746, 41.7713], [-75.0612, 41.7648], [-75.053, 41.7518], [-75.0548, 41.7349], [-75.0497, 41.7134], [-75.0662, 41.7128], [-75.069, 41.7093], [-75.0526, 41.6881], [-75.0513, 41.68], [-75.0595, 41.6723], [-75.0495, 41.6603], [-75.0486, 41.633], [-75.0436, 41.6233], [-75.0442, 41.6181], [-75.0467, 41.6156], [-75.0597, 41.6176], [-75.0597, 41.6104], [-75.0697, 41.6101], [-75.0747, 41.6065], [-75.06, 41.5908], [-75.0472, 41.5837], [-75.0405, 41.5697], [-75.0281, 41.5643], [-75.0188, 41.5524], [-75.016, 41.5442], [-75.0247, 41.5401], [-75.0245, 41.5346], [-75.0032, 41.5235], [-75.0007, 41.5186], [-75.0036, 41.5083], [-74.988, 41.5089], [-74.9842, 41.5065], [-74.9823, 41.4987], [-74.9856, 41.4859], [-74.9825, 41.4803], [-74.9574, 41.4766], [-74.9434, 41.4837], [-74.913, 41.476], [-74.9092, 41.4724], [-74.9066, 41.4609], [-74.8902, 41.4556], [-74.8892, 41.4511], [-74.8964, 41.4422], [-74.8926, 41.4386], [-74.8577, 41.4442], [-74.832, 41.4304], [-74.8263, 41.4316], [-74.818, 41.4405], [-74.8082, 41.4429], [-74.8011, 41.4383], [-74.7951, 41.4237], [-74.7891, 41.4214], [-74.7727, 41.4263], [-74.7586, 41.4233], [-74.7387, 41.4308], [-74.7347, 41.423], [-74.7414, 41.4057], [-74.7346, 41.3974], [-74.7164, 41.393], [-74.708, 41.3787], [-74.6914, 41.3674], [-74.6898, 41.3617], [-74.6956, 41.3576], [-74.4579, 41.2484], [-74.3307, 41.1855], [-73.9027, 40.9973], [-73.8936, 40.9972], [-73.8961, 40.9819], [-73.9298, 40.8887], [-73.9528, 40.8511], [-73.9636, 40.8266], [-74.014, 40.7576], [-74.0264, 40.7001], [-74.0557, 40.6515], [-74.087, 40.6515], [-74.126, 40.6422], [-74.1856, 40.646], [-74.2024, 40.6316], [-74.2048, 40.6061], [-74.1996, 40.5978], [-74.2072, 40.5879], [-74.2146, 40.5605], [-74.218, 40.5571], [-74.2314, 40.5592], [-74.2475, 40.5494], [-74.2503, 40.5423], [-74.246, 40.521], [-74.2541, 40.5157], [-74.2581, 40.5087], [-74.2588, 40.4989], [-74.253, 40.4867], [-74.2253, 40.4766], [-73.9779, 40.5191], [-73.8896, 40.4865], [-73.8768, 40.5011], [-73.8548, 40.512], [-73.8262, 40.5229], [-73.784, 40.5324], [-73.6246, 40.5345], [-73.4865, 40.5205], [-73.3263, 40.5569], [-73.274, 40.5513], [-73.2496, 40.5626], [-73.1246, 40.5984], [-73.014, 40.6251], [-72.8745, 40.675], [-72.8286, 40.6869], [-72.7495, 40.7134], [-72.6245, 40.7456], [-72.3745, 40.8186], [-71.9317, 40.9825], [-71.8701, 40.997], [-71.8371, 41.0109], [-71.7941, 41.037], [-71.7775, 41.0673], [-71.7819, 41.0962], [-71.7906, 41.1018], [-71.791, 41.1841], [-71.9073, 41.3045], [-71.9295, 41.3104], [-72.0192, 41.2906], [-72.0818, 41.2622], [-72.9995, 41.0871], [-73.2496, 41.0259], [-73.6129, 40.9509], [-73.6597, 40.9879], [-73.6572, 40.9909], [-73.6603, 41.0005], [-73.6553, 41.0122], [-73.7278, 41.1007], [-73.4827, 41.2128], [-73.551, 41.2954], [-73.4896, 42.0001], [-73.4873, 42.0495], [-73.497, 42.0496], [-73.5082, 42.0861], [-73.2648, 42.7459], [-73.2764, 42.746], [-73.2909, 42.8019], [-73.2837, 42.8139], [-73.2871, 42.8201], [-73.2854, 42.8341], [-73.2787, 42.8334], [-73.2783, 42.8376], [-73.2565, 43.2601], [-73.2477, 43.5232], [-73.2419, 43.5294], [-73.2416, 43.535], [-73.2501, 43.5434], [-73.2478, 43.5451], [-73.2504, 43.5504], [-73.2486, 43.5539], [-73.2545, 43.5556], [-73.2526, 43.5569], [-73.2586, 43.565], [-73.269, 43.5699], [-73.2679, 43.5722], [-73.2809, 43.5736], [-73.2849, 43.5793], [-73.2953, 43.5768], [-73.2973, 43.5794], [-73.2921, 43.5845], [-73.2969, 43.5873], [-73.291, 43.5992], [-73.298, 43.61], [-73.3028, 43.6098], [-73.3004, 43.6178], [-73.3026, 43.6257], [-73.3064, 43.6283], [-73.3112, 43.6241], [-73.3179, 43.6285], [-73.3277, 43.6259], [-73.3342, 43.628], [-73.3401, 43.6246], [-73.3445, 43.6263], [-73.3488, 43.6215], [-73.3543, 43.6262], [-73.3719, 43.6245], [-73.3698, 43.6194], [-73.3764, 43.6088], [-73.3725, 43.6048], [-73.3774, 43.5984], [-73.3835, 43.5974], [-73.3821, 43.5918], [-73.3869, 43.5908], [-73.3825, 43.5866], [-73.3853, 43.5833], [-73.3833, 43.5772], [-73.3958, 43.5681], [-73.4286, 43.584], [-73.4312, 43.5883], [-73.4216, 43.603], [-73.4237, 43.6124], [-73.4177, 43.6217], [-73.4284, 43.6355], [-73.4265, 43.6426], [-73.4155, 43.6525], [-73.4041, 43.6813], [-73.4047, 43.6902], [-73.3955, 43.6968], [-73.3859, 43.7113], [-73.3706, 43.7253], [-73.3699, 43.7439], [-73.3508, 43.7714], [-73.3582, 43.7865], [-73.3768, 43.7992], [-73.3807, 43.8108], [-73.3925, 43.8213], [-73.3882, 43.8327], [-73.3767, 43.8394], [-73.3726, 43.8454], [-73.3823, 43.8561], [-73.3742, 43.8762], [-73.3837, 43.8913], [-73.3962, 43.9033], [-73.4086, 43.9319], [-73.4057, 43.9559], [-73.4125, 43.9822], [-73.406, 44.0114], [-73.4076, 44.0211], [-73.4125, 44.0283], [-73.4229, 44.0325], [-73.4379, 44.0451], [-73.4297, 44.0786], [-73.4115, 44.112], [-73.4161, 44.1324], [-73.403, 44.145], [-73.3958, 44.1663], [-73.3972, 44.1738], [-73.3898, 44.1818], [-73.3906, 44.1911], [-73.3623, 44.2085], [-73.3505, 44.2299], [-73.3428, 44.2344], [-73.3434, 44.2382], [-73.3304, 44.2443], [-73.3237, 44.2442], [-73.3127, 44.2654], [-73.3122, 44.2801], [-73.3242, 44.31], [-73.324, 44.3338], [-73.3346, 44.3569], [-73.335, 44.3644], [-73.3336, 44.3723], [-73.315, 44.3885], [-73.2936, 44.4389], [-73.3001, 44.4547], [-73.2992, 44.4729], [-73.3067, 44.5003], [-73.3208, 44.5136], [-73.322, 44.5253], [-73.3297, 44.5296], [-73.3316, 44.5359], [-73.339, 44.5433], [-73.3388, 44.548], [-73.3568, 44.5579], [-73.375, 44.5758], [-73.3757, 44.582], [-73.3818, 44.5893], [-73.3768, 44.5996], [-73.3829, 44.6122], [-73.3902, 44.6184], [-73.3865, 44.6269], [-73.3868, 44.6364], [-73.3786, 44.6415], [-73.3845, 44.6467], [-73.3783, 44.6522], [-73.3791, 44.6568], [-73.3746, 44.6619], [-73.3697, 44.6635], [-73.3727, 44.6687], [-73.3718, 44.677], [-73.3672, 44.6785], [-73.3701, 44.6849], [-73.3613, 44.6945], [-73.366, 44.6976], [-73.3656, 44.7418], [-73.3544, 44.7553], [-73.3471, 44.773], [-73.3357, 44.7821], [-73.3332, 44.7888], [-73.335, 44.8041], [-73.3795, 44.838], [-73.3816, 44.8494], [-73.3798, 44.857], [-73.3691, 44.8667], [-73.3562, 44.9045], [-73.339, 44.9177], [-73.3382, 44.9648], [-73.3502, 44.9762], [-73.3546, 44.9874], [-73.3432, 45.0107], [-73.6502, 45.003], [-73.8414, 45.0021], [-74.1501, 44.9914], [-74.3365, 44.992], [-74.4654, 44.9972], [-74.6631, 44.9989], [-74.6705, 45.0063], [-74.6733, 45.0008], [-74.684, 44.9997], [-74.702, 45.0033], [-74.7262, 44.9949]]], [[[-74.0407, 40.7002], [-74.0399, 40.6986], [-74.0384, 40.6987], [-74.0407, 40.7002]]], [[[-74.0472, 40.6909], [-74.0436, 40.6888], [-74.0439, 40.6902], [-74.0472, 40.6909]]]]}, "properties": {"STUSAB": "NY", "NAME": "New York", "GEOID": "36"}}]}