{
  "type": "FeatureCollection",
  "features": [
    {
      "type": "Feature",
      "properties": {
        "name": "Village of Mamaroneck, Westchester County, New York, 10543, United States",
        "osm_type": "relation",
        "osm_id": 174889,
        "source": "OpenStreetMap Nominatim",
        "sourceUrl": "https://nominatim.openstreetmap.org/",
        "retrievedAt": "2026-09-22T14:30:07.051119+00:00",
        "license": "ODbL 1.0 (OpenStreetMap contributors)",
        "isSynthetic": false,
        "boundingBoxSWNE": [
          40.921535,
          40.969378,
          -73.749915,
          -73.713734
        ]
      },
      "geometry": {
        "type": "Polygon",
        "coordinates": [
          [
            [
              -73.749915,
              40.947272
            ],
            [
              -73.739887,
              40.929581
            ],
            [
              -73.7390982,
              40.9281887
            ],
            [
              -73.736069,
              40.922842
            ],
            [
              -73.736041,
              40.922793
            ],
            [
              -73.736213,
              40.922788
            ],
            [
              -73.73624,
              40.922772
            ],
            [
              -73.736289,
              40.922712
            ],
            [
              -73.736285,
              40.922643
            ],
            [
              -73.736107,
              40.92266
            ],
            [
              -73.736002,
              40.922674
            ],
            [
              -73.735873,
              40.922657
            ],
            [
              -73.735486,
              40.922561
            ],
            [
              -73.735355,
              40.922515
            ],
            [
              -73.73526,
              40.922468
            ],
            [
              -73.735156,
              40.922152
            ],
            [
              -73.735084,
              40.921935
            ],
            [
              -73.735004,
              40.92179
            ],
            [
              -73.734824,
              40.921639
            ],
            [
              -73.734656,
              40.92158
            ],
            [
              -73.73463,
              40.921573
            ],
            [
              -73.734353,
              40.921535
            ],
            [
              -73.73417,
              40.921553
            ],
            [
              -73.73391,
              40.921636
            ],
            [
              -73.733747,
              40.921747
            ],
            [
              -73.733681,
              40.921923
            ],
            [
              -73.73364,
              40.922189
            ],
            [
              -73.733636,
              40.922364
            ],
            [
              -73.733497,
              40.922928
            ],
            [
              -73.733408,
              40.923207
            ],
            [
              -73.733349,
              40.923311
            ],
            [
              -73.733141,
              40.923384
            ],
            [
              -73.733088,
              40.923437
            ],
            [
              -73.733063,
              40.923502
            ],
            [
              -73.733029,
              40.923846
            ],
            [
              -73.733017,
              40.924108
            ],
            [
              -73.732964,
              40.924216
            ],
            [
              -73.732874,
              40.924309
            ],
            [
              -73.732549,
              40.924454
            ],
            [
              -73.732249,
              40.924625
            ],
            [
              -73.732189,
              40.924681
            ],
            [
              -73.732094,
              40.92508
            ],
            [
              -73.732057,
              40.925235
            ],
            [
              -73.732033,
              40.925498
            ],
            [
              -73.732064,
              40.925833
            ],
            [
              -73.73213,
              40.926026
            ],
            [
              -73.732334,
              40.926494
            ],
            [
              -73.732517,
              40.92708
            ],
            [
              -73.732524,
              40.927234
            ],
            [
              -73.732448,
              40.927377
            ],
            [
              -73.732342,
              40.927477
            ],
            [
              -73.732033,
              40.927768
            ],
            [
              -73.731916,
              40.927883
            ],
            [
              -73.731788,
              40.928026
            ],
            [
              -73.731562,
              40.928234
            ],
            [
              -73.731273,
              40.928264
            ],
            [
              -73.730513,
              40.928301
            ],
            [
              -73.730228,
              40.928299
            ],
            [
              -73.729664,
              40.928234
            ],
            [
              -73.729347,
              40.928156
            ],
            [
              -73.729148,
              40.928088
            ],
            [
              -73.728943,
              40.928017
            ],
            [
              -73.728669,
              40.927877
            ],
            [
              -73.728484,
              40.927783
            ],
            [
              -73.728188,
              40.927601
            ],
            [
              -73.728115,
              40.927527
            ],
            [
              -73.728076,
              40.927436
            ],
            [
              -73.727984,
              40.927367
            ],
            [
              -73.72772,
              40.927297
            ],
            [
              -73.727611,
              40.927288
            ],
            [
              -73.727464,
              40.927301
            ],
            [
              -73.727212,
              40.927371
            ],
            [
              -73.727076,
              40.92743
            ],
            [
              -73.726672,
              40.927604
            ],
            [
              -73.72629,
              40.927808
            ],
            [
              -73.726091,
              40.927937
            ],
            [
              -73.725551,
              40.92847
            ],
            [
              -73.725419,
              40.928546
            ],
            [
              -73.725324,
              40.928554
            ],
            [
              -73.725282,
              40.928511
            ],
            [
              -73.725191,
              40.928242
            ],
            [
              -73.725157,
              40.928211
            ],
            [
              -73.725132,
              40.928208
            ],
            [
              -73.725119,
              40.928211
            ],
            [
              -73.725183,
              40.928578
            ],
            [
              -73.725168,
              40.928629
            ],
            [
              -73.725105,
              40.928688
            ],
            [
              -73.725034,
              40.928718
            ],
            [
              -73.724925,
              40.928724
            ],
            [
              -73.724567,
              40.928635
            ],
            [
              -73.724367,
              40.928629
            ],
            [
              -73.72437,
              40.928705
            ],
            [
              -73.725008,
              40.928895
            ],
            [
              -73.725051,
              40.928927
            ],
            [
              -73.725046,
              40.929294
            ],
            [
              -73.725045,
              40.929347
            ],
            [
              -73.725021,
              40.929384
            ],
            [
              -73.724971,
              40.929384
            ],
            [
              -73.724521,
              40.929264
            ],
            [
              -73.72449,
              40.929279
            ],
            [
              -73.724499,
              40.929313
            ],
            [
              -73.724974,
              40.929436
            ],
            [
              -73.725,
              40.929463
            ],
            [
              -73.725008,
              40.929516
            ],
            [
              -73.724987,
              40.929635
            ],
            [
              -73.724946,
              40.929664
            ],
            [
              -73.724856,
              40.929689
            ],
            [
              -73.724717,
              40.929715
            ],
            [
              -73.724574,
              40.929776
            ],
            [
              -73.724448,
              40.930001
            ],
            [
              -73.724462,
              40.930042
            ],
            [
              -73.724525,
              40.930067
            ],
            [
              -73.724684,
              40.930028
            ],
            [
              -73.724849,
              40.930028
            ],
            [
              -73.724959,
              40.93005
            ],
            [
              -73.725063,
              40.930133
            ],
            [
              -73.725107,
              40.930198
            ],
            [
              -73.725113,
              40.930242
            ],
            [
              -73.725091,
              40.930281
            ],
            [
              -73.724948,
              40.930374
            ],
            [
              -73.724931,
              40.930418
            ],
            [
              -73.724975,
              40.930495
            ],
            [
              -73.725212,
              40.93061
            ],
            [
              -73.725258,
              40.930699
            ],
            [
              -73.725214,
              40.930889
            ],
            [
              -73.725052,
              40.931165
            ],
            [
              -73.724981,
              40.931242
            ],
            [
              -73.724898,
              40.93128
            ],
            [
              -73.724799,
              40.931286
            ],
            [
              -73.723908,
              40.930965
            ],
            [
              -73.723865,
              40.930923
            ],
            [
              -73.723854,
              40.930726
            ],
            [
              -73.72382,
              40.930664
            ],
            [
              -73.723717,
              40.930616
            ],
            [
              -73.723283,
              40.930511
            ],
            [
              -73.723223,
              40.930511
            ],
            [
              -73.723173,
              40.930533
            ],
            [
              -73.723118,
              40.930577
            ],
            [
              -73.722668,
              40.931088
            ],
            [
              -73.722629,
              40.931093
            ],
            [
              -73.722453,
              40.93106
            ],
            [
              -73.722426,
              40.931077
            ],
            [
              -73.722409,
              40.931115
            ],
            [
              -73.722409,
              40.931253
            ],
            [
              -73.722444,
              40.931315
            ],
            [
              -73.722574,
              40.931406
            ],
            [
              -73.722569,
              40.931494
            ],
            [
              -73.722519,
              40.931555
            ],
            [
              -73.722343,
              40.931719
            ],
            [
              -73.721894,
              40.931832
            ],
            [
              -73.721696,
              40.931897
            ],
            [
              -73.721652,
              40.931941
            ],
            [
              -73.721625,
              40.932013
            ],
            [
              -73.72163,
              40.932079
            ],
            [
              -73.721608,
              40.932161
            ],
            [
              -73.721421,
              40.932315
            ],
            [
              -73.721425,
              40.932368
            ],
            [
              -73.721454,
              40.932381
            ],
            [
              -73.721603,
              40.932381
            ],
            [
              -73.722003,
              40.932226
            ],
            [
              -73.722525,
              40.931973
            ],
            [
              -73.722783,
              40.931814
            ],
            [
              -73.722975,
              40.931831
            ],
            [
              -73.723099,
              40.931874
            ],
            [
              -73.723168,
              40.931831
            ],
            [
              -73.723195,
              40.931776
            ],
            [
              -73.723195,
              40.931611
            ],
            [
              -73.723228,
              40.931529
            ],
            [
              -73.723459,
              40.931353
            ],
            [
              -73.723635,
              40.931243
            ],
            [
              -73.723785,
              40.931208
            ],
            [
              -73.724052,
              40.931205
            ],
            [
              -73.724311,
              40.93126
            ],
            [
              -73.724585,
              40.931375
            ],
            [
              -73.724635,
              40.931441
            ],
            [
              -73.724679,
              40.931627
            ],
            [
              -73.724679,
              40.93177
            ],
            [
              -73.724648,
              40.931831
            ],
            [
              -73.72458,
              40.931907
            ],
            [
              -73.724365,
              40.932028
            ],
            [
              -73.724245,
              40.932176
            ],
            [
              -73.724163,
              40.932305
            ],
            [
              -73.724091,
              40.932369
            ],
            [
              -73.723984,
              40.932394
            ],
            [
              -73.723906,
              40.932433
            ],
            [
              -73.72387,
              40.932509
            ],
            [
              -73.723804,
              40.932542
            ],
            [
              -73.72365,
              40.93258
            ],
            [
              -73.723574,
              40.932646
            ],
            [
              -73.723491,
              40.932794
            ],
            [
              -73.723458,
              40.932975
            ],
            [
              -73.723436,
              40.933008
            ],
            [
              -73.723354,
              40.933063
            ],
            [
              -73.723112,
              40.933162
            ],
            [
              -73.72309,
              40.93319
            ],
            [
              -73.723071,
              40.933431
            ],
            [
              -73.723093,
              40.933798
            ],
            [
              -73.723087,
              40.933945
            ],
            [
              -73.723083,
              40.933953
            ],
            [
              -73.723026,
              40.933983
            ],
            [
              -73.722749,
              40.934009
            ],
            [
              -73.72259,
              40.934009
            ],
            [
              -73.722489,
              40.934051
            ],
            [
              -73.722444,
              40.934137
            ],
            [
              -73.722458,
              40.934192
            ],
            [
              -73.722508,
              40.934199
            ],
            [
              -73.72266,
              40.934219
            ],
            [
              -73.722808,
              40.934248
            ],
            [
              -73.72321,
              40.934461
            ],
            [
              -73.7234,
              40.934658
            ],
            [
              -73.723539,
              40.93482
            ],
            [
              -73.723601,
              40.934931
            ],
            [
              -73.72375,
              40.935118
            ],
            [
              -73.72376,
              40.935211
            ],
            [
              -73.723729,
              40.935385
            ],
            [
              -73.723515,
              40.93616
            ],
            [
              -73.723462,
              40.936353
            ],
            [
              -73.723397,
              40.936492
            ],
            [
              -73.723353,
              40.936529
            ],
            [
              -73.723241,
              40.936623
            ],
            [
              -73.723159,
              40.936669
            ],
            [
              -73.723085,
              40.93671
            ],
            [
              -73.722981,
              40.936717
            ],
            [
              -73.722922,
              40.936686
            ],
            [
              -73.722915,
              40.936519
            ],
            [
              -73.722905,
              40.936471
            ],
            [
              -73.722887,
              40.936461
            ],
            [
              -73.722836,
              40.936433
            ],
            [
              -73.722756,
              40.936416
            ],
            [
              -73.722607,
              40.936485
            ],
            [
              -73.722598,
              40.936506
            ],
            [
              -73.722545,
              40.936627
            ],
            [
              -73.722541,
              40.936706
            ],
            [
              -73.722569,
              40.936848
            ],
            [
              -73.722739,
              40.936869
            ],
            [
              -73.722742,
              40.936935
            ],
            [
              -73.722515,
              40.93719
            ],
            [
              -73.722439,
              40.93735
            ],
            [
              -73.722406,
              40.937662
            ],
            [
              -73.722323,
              40.937769
            ],
            [
              -73.722156,
              40.937894
            ],
            [
              -73.721928,
              40.937963
            ],
            [
              -73.721571,
              40.93814
            ],
            [
              -73.721536,
              40.938173
            ],
            [
              -73.721462,
              40.938335
            ],
            [
              -73.721468,
              40.938434
            ],
            [
              -73.721517,
              40.93855
            ],
            [
              -73.721386,
              40.938724
            ],
            [
              -73.721254,
              40.938861
            ],
            [
              -73.720492,
              40.939523
            ],
            [
              -73.713734,
              40.945176
            ],
            [
              -73.7155982,
              40.9575488
            ],
            [
              -73.715844,
              40.95918
            ],
            [
              -73.721865,
              40.961222
            ],
            [
              -73.722956,
              40.9616627
            ],
            [
              -73.723526,
              40.961893
            ],
            [
              -73.730367,
              40.964525
            ],
            [
              -73.730675,
              40.965437
            ],
            [
              -73.730709,
              40.965653
            ],
            [
              -73.730668,
              40.965999
            ],
            [
              -73.730952,
              40.966431
            ],
            [
              -73.730972,
              40.966582
            ],
            [
              -73.730945,
              40.967364
            ],
            [
              -73.731139,
              40.967766
            ],
            [
              -73.731215,
              40.967864
            ],
            [
              -73.731319,
              40.967925
            ],
            [
              -73.731572,
              40.967985
            ],
            [
              -73.731838,
              40.968084
            ],
            [
              -73.732094,
              40.968216
            ],
            [
              -73.734309,
              40.968366
            ],
            [
              -73.73456,
              40.968406
            ],
            [
              -73.73465,
              40.968454
            ],
            [
              -73.734747,
              40.968531
            ],
            [
              -73.734885,
              40.968589
            ],
            [
              -73.735349,
              40.968646
            ],
            [
              -73.735945,
              40.968686
            ],
            [
              -73.736028,
              40.968762
            ],
            [
              -73.736083,
              40.968859
            ],
            [
              -73.736187,
              40.969178
            ],
            [
              -73.736263,
              40.969302
            ],
            [
              -73.73636,
              40.969364
            ],
            [
              -73.73643,
              40.969378
            ],
            [
              -73.73652,
              40.969358
            ],
            [
              -73.736676,
              40.969158
            ],
            [
              -73.736734,
              40.969053
            ],
            [
              -73.737025,
              40.968838
            ],
            [
              -73.737171,
              40.968755
            ],
            [
              -73.737434,
              40.968694
            ],
            [
              -73.737545,
              40.968693
            ],
            [
              -73.737746,
              40.968731
            ],
            [
              -73.73796,
              40.968856
            ],
            [
              -73.738161,
              40.96889
            ],
            [
              -73.738258,
              40.968849
            ],
            [
              -73.738341,
              40.968766
            ],
            [
              -73.738487,
              40.968413
            ],
            [
              -73.738743,
              40.968157
            ],
            [
              -73.739006,
              40.967915
            ],
            [
              -73.739318,
              40.967832
            ],
            [
              -73.739643,
              40.967838
            ],
            [
              -73.739941,
              40.967894
            ],
            [
              -73.74014,
              40.968018
            ],
            [
              -73.740453,
              40.968132
            ],
            [
              -73.740874,
              40.968321
            ],
            [
              -73.740777,
              40.967768
            ],
            [
              -73.741207,
              40.967695
            ],
            [
              -73.741493,
              40.967607
            ],
            [
              -73.741594,
              40.967565
            ],
            [
              -73.7417,
              40.96748
            ],
            [
              -73.741959,
              40.967195
            ],
            [
              -73.742042,
              40.967047
            ],
            [
              -73.742094,
              40.966939
            ],
            [
              -73.74214,
              40.966774
            ],
            [
              -73.742151,
              40.966564
            ],
            [
              -73.742114,
              40.966354
            ],
            [
              -73.741903,
              40.965956
            ],
            [
              -73.741602,
              40.965581
            ],
            [
              -73.740202,
              40.964302
            ],
            [
              -73.74009,
              40.964095
            ],
            [
              -73.740344,
              40.963411
            ],
            [
              -73.741716,
              40.960779
            ],
            [
              -73.741935,
              40.960401
            ],
            [
              -73.742717,
              40.958937
            ],
            [
              -73.74328,
              40.957807
            ],
            [
              -73.744538,
              40.955427
            ],
            [
              -73.745147,
              40.95452
            ],
            [
              -73.747801,
              40.95036
            ],
            [
              -73.749557,
              40.947666
            ],
            [
              -73.749915,
              40.947272
            ]
          ]
        ]
      }
    }
  ]
}