{"type": "FeatureCollection", "features": [{"id": "0", "type": "Feature", "properties": {"facilityId": "node-357610412", "facilityType": "school", "name": "Holy Trinity Parochial School", "nearCellIds": ["cell-041-023", "cell-041-024", "cell-041-025", "cell-042-023", "cell-042-024", "cell-042-025", "cell-042-026", "cell-043-023", "cell-043-024", "cell-043-025", "cell-043-026", "cell-044-023", "cell-044-024", "cell-044-025"]}, "geometry": {"type": "Point", "coordinates": [-73.7311674, 40.9501255]}}, {"id": "1", "type": "Feature", "properties": {"facilityId": "node-368046034", "facilityType": "fire_station", "name": "Halstead Manor Engine and Hose Company Number 4", "nearCellIds": ["cell-054-028", "cell-054-029", "cell-054-030", "cell-054-031", "cell-055-028", "cell-055-029", "cell-055-030", "cell-055-031", "cell-056-028", "cell-056-029", "cell-056-030", "cell-056-031", "cell-057-029", "cell-057-030"]}, "geometry": {"type": "Point", "coordinates": [-73.7242971, 40.9612095]}}, {"id": "2", "type": "Feature", "properties": {"facilityId": "node-368046038", "facilityType": "fire_station", "name": "Columbia Engine and Hose Company Number 2", "nearCellIds": ["cell-052-023", "cell-052-024", "cell-052-025", "cell-053-022", "cell-053-023", "cell-053-024", "cell-053-025", "cell-054-022", "cell-054-023", "cell-054-024", "cell-054-025", "cell-055-023", "cell-055-024", "cell-055-025"]}, "geometry": {"type": "Point", "coordinates": [-73.7312419, 40.9600984]}}, {"id": "3", "type": "Feature", "properties": {"facilityId": "node-2622870997", "facilityType": "police", "name": "Town of Mamaroneck Police Department", "nearCellIds": ["cell-033-014", "cell-033-015", "cell-033-016", "cell-034-014", "cell-034-015", "cell-034-016", "cell-034-017", "cell-035-014", "cell-035-015", "cell-035-016", "cell-035-017", "cell-036-014", "cell-036-015", "cell-036-016", "cell-036-017"]}, "geometry": {"type": "Point", "coordinates": [-73.741799, 40.9430098]}}, {"id": "4", "type": "Feature", "properties": {"facilityId": "node-4075779126", "facilityType": "transit", "name": "Harrison", "nearCellIds": []}, "geometry": {"type": "Point", "coordinates": [-73.711817, 40.9695976]}}, {"id": "5", "type": "Feature", "properties": {"facilityId": "node-4075779127", "facilityType": "transit", "name": "Mamaroneck", "nearCellIds": ["cell-045-019", "cell-045-020", "cell-046-018", "cell-046-019", "cell-046-020", "cell-046-021", "cell-047-018", "cell-047-019", "cell-047-020", "cell-047-021", "cell-048-018", "cell-048-019", "cell-048-020", "cell-048-021"]}, "geometry": {"type": "Point", "coordinates": [-73.7363419, 40.9539564]}}, {"id": "6", "type": "Feature", "properties": {"facilityId": "node-7006531044", "facilityType": "transit", "name": "Larchmont", "nearCellIds": []}, "geometry": {"type": "Point", "coordinates": [-73.7583563, 40.9345412]}}, {"id": "7", "type": "Feature", "properties": {"facilityId": "node-7470950031", "facilityType": "fire_station", "name": "Village of Larchmont Fire Department", "nearCellIds": []}, "geometry": {"type": "Point", "coordinates": [-73.7514701, 40.9272502]}}, {"id": "8", "type": "Feature", "properties": {"facilityId": "way-797596291", "facilityType": "school", "name": "Chatsworth Avenue School", "nearCellIds": []}, "geometry": {"type": "Point", "coordinates": [-73.7533236, 40.9297435]}}, {"id": "9", "type": "Feature", "properties": {"facilityId": "way-797693966", "facilityType": "school", "name": "Hommocks Middle School", "nearCellIds": ["cell-023-012", "cell-023-013", "cell-024-011", "cell-024-012", "cell-024-013", "cell-024-014", "cell-025-011", "cell-025-012", "cell-025-013", "cell-025-014", "cell-026-011", "cell-026-012", "cell-026-013", "cell-026-014"]}, "geometry": {"type": "Point", "coordinates": [-73.7453716, 40.9341425]}}, {"id": "10", "type": "Feature", "properties": {"facilityId": "way-798825137", "facilityType": "fire_station", "name": "Town of Mamaroneck Fire Department", "nearCellIds": []}, "geometry": {"type": "Point", "coordinates": [-73.7562525, 40.9402677]}}, {"id": "11", "type": "Feature", "properties": {"facilityId": "way-798855689", "facilityType": "school", "name": "Mamaroneck Avenue School", "nearCellIds": ["cell-050-017", "cell-050-018", "cell-051-016", "cell-051-017", "cell-051-018", "cell-051-019", "cell-052-016", "cell-052-017", "cell-052-018", "cell-052-019", "cell-053-016", "cell-053-017", "cell-053-018", "cell-053-019"]}, "geometry": {"type": "Point", "coordinates": [-73.7388634, 40.9584057]}}, {"id": "12", "type": "Feature", "properties": {"facilityId": "way-802221721", "facilityType": "school", "name": "Central School", "nearCellIds": ["cell-028-009", "cell-028-010", "cell-028-011", "cell-029-008", "cell-029-009", "cell-029-010", "cell-029-011", "cell-030-008", "cell-030-009", "cell-030-010", "cell-030-011", "cell-031-008", "cell-031-009", "cell-031-010", "cell-031-011"]}, "geometry": {"type": "Point", "coordinates": [-73.748664, 40.9384791]}}, {"id": "13", "type": "Feature", "properties": {"facilityId": "way-803872633", "facilityType": "school", "name": "Mamaroneck High School", "nearCellIds": ["cell-032-012", "cell-032-013", "cell-032-014", "cell-032-015", "cell-033-012", "cell-033-013", "cell-033-014", "cell-033-015", "cell-034-012", "cell-034-013", "cell-034-014", "cell-034-015", "cell-035-013", "cell-035-014"]}, "geometry": {"type": "Point", "coordinates": [-73.7441251, 40.9416122]}}, {"id": "14", "type": "Feature", "properties": {"facilityId": "way-838815138", "facilityType": "fire_station", "name": "Village of Mamaroneck Fire Department", "nearCellIds": ["cell-041-020", "cell-041-021", "cell-042-019", "cell-042-020", "cell-042-021", "cell-042-022", "cell-043-019", "cell-043-020", "cell-043-021", "cell-043-022", "cell-044-019", "cell-044-020", "cell-044-021", "cell-044-022"]}, "geometry": {"type": "Point", "coordinates": [-73.7355934, 40.9502263]}}, {"id": "15", "type": "Feature", "properties": {"facilityId": "way-849908859", "facilityType": "fire_station", "name": "Volunteer Engine and Hose Company Number 3", "nearCellIds": ["cell-046-017", "cell-046-018", "cell-046-019", "cell-047-016", "cell-047-017", "cell-047-018", "cell-047-019", "cell-048-016", "cell-048-017", "cell-048-018", "cell-048-019", "cell-049-017", "cell-049-018", "cell-049-019"]}, "geometry": {"type": "Point", "coordinates": [-73.7386224, 40.9546358]}}, {"id": "16", "type": "Feature", "properties": {"facilityId": "way-963746154", "facilityType": "school", "name": "Parsons Memorial Elementary School", "nearCellIds": []}, "geometry": {"type": "Point", "coordinates": [-73.7172396, 40.9675474]}}, {"id": "17", "type": "Feature", "properties": {"facilityId": "way-1073461243", "facilityType": "school", "name": "Westchester Hebrew High School", "nearCellIds": ["cell-025-027", "cell-025-028", "cell-025-029", "cell-026-026", "cell-026-027", "cell-026-028", "cell-026-029", "cell-027-026", "cell-027-027", "cell-027-028", "cell-027-029", "cell-028-027", "cell-028-028", "cell-028-029"]}, "geometry": {"type": "Point", "coordinates": [-73.7271137, 40.9354268]}}, {"id": "18", "type": "Feature", "properties": {"facilityId": "way-1073461258", "facilityType": "school", "name": "Unnamed", "nearCellIds": ["cell-034-017", "cell-034-018", "cell-034-019", "cell-035-016", "cell-035-017", "cell-035-018", "cell-035-019", "cell-036-016", "cell-036-017", "cell-036-018", "cell-036-019", "cell-037-017", "cell-037-018", "cell-037-019"]}, "geometry": {"type": "Point", "coordinates": [-73.7388441, 40.9436316]}}, {"id": "19", "type": "Feature", "properties": {"facilityId": "way-1265844973", "facilityType": "school", "name": "Louis M. Klein Middle School", "nearCellIds": []}, "geometry": {"type": "Point", "coordinates": [-73.7187739, 40.9787094]}}, {"id": "20", "type": "Feature", "properties": {"facilityId": "way-1265846206", "facilityType": "school", "name": "Harrison Avenue Elementary School", "nearCellIds": []}, "geometry": {"type": "Point", "coordinates": [-73.7150408, 40.9783868]}}, {"id": "21", "type": "Feature", "properties": {"facilityId": "way-1442872937", "facilityType": "school", "name": "Unnamed", "nearCellIds": []}, "geometry": {"type": "Point", "coordinates": [-73.7502542, 40.9270716]}}, {"id": "22", "type": "Feature", "properties": {"facilityId": "way-1520676499", "facilityType": "school", "name": "Saints John and Paul School", "nearCellIds": []}, "geometry": {"type": "Point", "coordinates": [-73.7554047, 40.940972]}}, {"id": "23", "type": "Feature", "properties": {"facilityId": "way-1550215073", "facilityType": "school", "name": "Unnamed", "nearCellIds": ["cell-049-015", "cell-049-016", "cell-049-017", "cell-050-015", "cell-050-016", "cell-050-017", "cell-050-018", "cell-051-015", "cell-051-016", "cell-051-017", "cell-051-018", "cell-052-015", "cell-052-016", "cell-052-017", "cell-052-018"]}, "geometry": {"type": "Point", "coordinates": [-73.7402641, 40.9573393]}}, {"id": "24", "type": "Feature", "properties": {"facilityId": "way-1556559537", "facilityType": "school", "name": "F.E. Bellows Elementary School", "nearCellIds": ["cell-045-028", "cell-045-029", "cell-046-027", "cell-046-028", "cell-046-029", "cell-046-030", "cell-047-027", "cell-047-028", "cell-047-029", "cell-047-030", "cell-048-027", "cell-048-028", "cell-048-029", "cell-048-030"]}, "geometry": {"type": "Point", "coordinates": [-73.7260293, 40.9538911]}}, {"id": "25", "type": "Feature", "properties": {"facilityId": "way-1556560886", "facilityType": "school", "name": "Daniel Warren Elementary School", "nearCellIds": ["cell-049-031", "cell-049-032", "cell-049-033", "cell-050-031", "cell-050-032", "cell-050-033", "cell-050-034", "cell-051-031", "cell-051-032", "cell-051-033", "cell-051-034", "cell-052-031", "cell-052-032", "cell-052-033"]}, "geometry": {"type": "Point", "coordinates": [-73.7216356, 40.9568297]}}, {"id": "26", "type": "Feature", "properties": {"facilityId": "way-1556563031", "facilityType": "school", "name": "Rye Neck Middle & High School", "nearCellIds": ["cell-051-038", "cell-051-039", "cell-051-040", "cell-052-038", "cell-052-039", "cell-052-040", "cell-053-038", "cell-053-039", "cell-053-040", "cell-053-041", "cell-054-038", "cell-054-039", "cell-054-040"]}, "geometry": {"type": "Point", "coordinates": [-73.7133213, 40.9590467]}}]}